OBJECT_NAME,OBJECT_ID,EPOCH,MEAN_MOTION,ECCENTRICITY,INCLINATION,RA_OF_ASC_NODE,ARG_OF_PERICENTER,MEAN_ANOMALY,EPHEMERIS_TYPE,CLASSIFICATION_TYPE,NORAD_CAT_ID,ELEMENT_SET_NO,REV_AT_EPOCH,BSTAR,MEAN_MOTION_DOT,MEAN_MOTION_DDOT
TOMORROW-S2,2024-149T,2026-07-11T18:37:47.296704,15.33108702,.00035671,97.3820,273.6882,156.8906,203.2497,0,U,60485,999,10585,.15087724E-3,.4747E-4,0
FLOCK 4BE-36,2024-149U,2026-07-12T05:06:50.474016,15.43474712,.0004488,97.3744,277.9533,159.7568,200.3859,0,U,60486,999,10621,.21938E-3,.9739E-4,0
FLOCK 4BE-25,2024-149V,2026-07-11T19:01:34.216896,15.39482396,.00035193,97.3799,276.1193,149.7719,210.3730,0,U,60487,999,10602,.22297906E-3,.8664E-4,0
FLOCK 4BE-31,2024-149W,2026-07-12T05:16:47.581824,15.45069958,.0004126,97.3798,278.8936,164.2293,195.9085,0,U,60488,999,10624,.26988E-3,.12672E-3,0
FLOCK 4BE-20,2024-149X,2026-07-11T18:26:17.873952,15.38748408,.00047401,97.3697,274.9117,161.5503,198.5915,0,U,60489,999,10599,.22866286E-3,.8677E-4,0
FLOCK 4BE-23,2024-149Y,2026-07-11T18:21:49.362624,15.38303174,.00042453,97.3793,275.2968,164.9328,195.2044,0,U,60490,999,10597,.21763546E-3,.8134E-4,0
FLOCK 4BE-17,2024-149AA,2026-07-11T17:09:36.259200,15.40497548,.00041455,97.3773,276.2883,155.3826,204.7619,0,U,60492,999,10603,.23253259E-3,.9349E-4,0
NUSAT-50 (NANCY ROMAN),2024-149AB,2026-07-11T18:12:02.107008,15.30280412,.00047973,97.3788,273.8483,109.7842,250.3916,0,U,60493,999,10588,.19286784E-3,.5574E-4,0
FLOCK 4BE-22,2024-149AC,2026-07-11T19:17:58.024320,15.41913954,.00044783,97.3734,276.6096,163.9303,196.2087,0,U,60494,999,10609,.23075198E-3,.9725E-4,0
FLOCK 4BE-34,2024-149AD,2026-07-11T18:09:41.765760,15.41878550,.0004513,97.3780,277.3986,170.4162,189.7172,0,U,60495,999,10611,.21967792E-3,.9242E-4,0
TYCHE,2024-149AE,2026-07-11T23:44:31.625952,15.25814146,.0002792,97.3752,270.4720,174.3441,185.7830,0,U,60496,999,10568,.10644E-3,.2649E-4,0
FLOCK 4BE-32,2024-149AF,2026-07-11T18:33:34.183584,15.43005273,.00045975,97.3718,276.9792,167.9865,192.1493,0,U,60497,999,10612,.26599874E-3,.11644E-3,0
NUSAT-48 (HENRIETTA LEAVITT),2024-149AG,2026-07-11T16:21:54.724896,15.30236606,.00044793,97.3922,274.0580,168.9688,191.1651,0,U,60498,999,10588,.17321815E-3,.4991E-4,0
NUSAT-49 (KLARA DAN VON NEUMANN),2024-149AJ,2026-07-11T18:56:26.900736,15.30346061,.00021268,97.3781,273.9113,172.2733,187.8541,0,U,60500,999,10589,.17957643E-3,.5194E-4,0
FLOCK 4BE-11,2024-149AK,2026-07-10T04:47:11.653152,15.43759592,.00045665,97.3696,275.6385,172.5870,187.5446,0,U,60501,999,10590,.31749865E-3,.14279E-3,0
YAM-7,2024-149AN,2026-07-11T17:55:52.649760,15.32151431,.00033198,97.3783,272.9007,179.0948,181.0301,0,U,60504,999,10581,.143654E-3,.4381E-4,0
FLOCK 4BE-24,2024-149AP,2026-07-09T12:51:25.814016,15.43944372,.00044967,97.3710,275.2320,186.8328,173.2860,0,U,60505,999,10581,.34635346E-3,.15684E-3,0
LUR-1,2024-149AQ,2026-07-11T18:21:42.911136,15.30417906,.00036378,97.3737,271.4189,194.1994,165.9145,0,U,60506,999,10573,.13635304E-3,.3934E-4,0
TANAGER-1,2024-149AR,2026-07-12T05:34:44.961312,15.43907540,.0001965,97.2303,287.3864,177.3872,182.7387,0,U,60507,999,10690,.63026E-5,.202E-5,0
EAGLEEYE,2024-149AS,2026-07-11T18:47:57.164064,15.76132224,.00036033,97.3753,287.5653,184.5090,175.6143,0,U,60508,999,10680,.5580284E-3,.87498E-3,0
FLOCK 4BE-29,2024-149AT,2026-07-11T19:09:00.315648,15.45278458,.00030463,97.3808,279.0564,182.4298,177.6937,0,U,60509,999,10621,.57137243E-3,.27166E-3,0
TRANSPORTER-11 OBJECT AU,2024-149AU,2026-07-11T00:37:26.284224,15.40895030,.0003856,97.3730,275.9465,181.4585,178.6651,0,U,60510,999,10598,.23493886E-3,.9571E-4,0
FLOCK 4BE-2,2024-149AV,2026-07-12T00:59:44.627136,15.55608654,.0005144,97.3833,281.0962,180.9826,179.1420,0,U,60511,999,10636,.65247E-3,.4483E-3,0
FLOCK 4BE-13,2024-149AW,2026-07-11T19:29:03.800256,15.42552459,.00048675,97.3718,277.4895,165.8986,194.2398,0,U,60512,999,10616,.20085109E-3,.8636E-4,0
FLOCK 4BE-27,2024-149AX,2026-07-12T00:53:03.477120,15.34880048,.000366,97.3826,274.9056,192.0396,168.0760,0,U,60513,999,10595,.17735E-3,.5918E-4,0
FLOCK 4BE-9,2024-149AY,2026-07-12T00:32:31.890048,15.41530797,.0003423,97.3794,277.5460,179.1039,181.0214,0,U,60514,999,10614,.2295E-3,.9547E-4,0
FLOCK 4BE-6,2024-149BA,2026-07-11T19:28:41.090016,15.40253020,.00039323,97.3792,276.6440,183.6952,176.4265,0,U,60516,999,10606,.21158877E-3,.8429E-4,0
